start=new Date('2022-01-28T00:00:00.000Z').valueOf();
sats=[{"REV_AT_EPOCH":"8244","RCS_SIZE":"LARGE","INCLINATION":"53.0563","BSTAR":"0.00010082000000","SEMIMAJOR_AXIS":"6925.360","APOAPSIS":"548.179","OBJECT_NAME":"STARLINK-1556","GP_ID":"194739845","RA_OF_ASC_NODE":"30.4668","MEAN_MOTION_DDOT":"0.0000000000000","DECAY_DATE":null,"EPOCH":"2022-01-27T10:38:16.862208","MEAN_ELEMENT_THEORY":"SGP4","MEAN_MOTION":"15.06396308","PERIAPSIS":"546.271","MEAN_MOTION_DOT":"0.00001220","PERIOD":"95.592","TLE_LINE1":"1 46033U 20055G   22027.44325072  .00001220  00000-0  10082-3 0  9997","ARG_OF_PERICENTER":"68.7565","COUNTRY_CODE":"US","SITE":"AFETR","ELEMENT_SET_NO":"999","FILE":"3284946","EPHEMERIS_TYPE":"0","CLASSIFICATION_TYPE":"U","LAUNCH_DATE":"2020-08-07","ECCENTRICITY":"0.00013780","TLE_LINE2":"2 46033  53.0563  30.4668 0001378  68.7565 291.3571 15.06396308 82440","CENTER_NAME":"EARTH","MEAN_ANOMALY":"291.3571","NORAD_CAT_ID":"46033","OBJECT_TYPE":"PAYLOAD","OBJECT_ID":"2020-055G","TIME_SYSTEM":"UTC","REF_FRAME":"TEME"},{"MEAN_ELEMENT_THEORY":"SGP4","PERIAPSIS":"546.100","MEAN_MOTION":"15.06392638","MEAN_MOTION_DOT":"0.00001439","RA_OF_ASC_NODE":"29.2679","MEAN_MOTION_DDOT":"0.0000000000000","DECAY_DATE":null,"EPOCH":"2022-01-27T17:05:45.439008","APOAPSIS":"548.372","OBJECT_NAME":"STARLINK-1557","SEMIMAJOR_AXIS":"6925.371","GP_ID":"194749872","RCS_SIZE":"LARGE","REV_AT_EPOCH":"8199","INCLINATION":"53.0556","BSTAR":"0.00011552000000","NORAD_CAT_ID":"46034","MEAN_ANOMALY":"291.0204","OBJECT_TYPE":"PAYLOAD","TIME_SYSTEM":"UTC","OBJECT_ID":"2020-055H","REF_FRAME":"TEME","LAUNCH_DATE":"2020-08-07","CLASSIFICATION_TYPE":"U","ECCENTRICITY":"0.00016400","TLE_LINE2":"2 46034  53.0556  29.2679 0001640  69.0961 291.0204 15.06392638 81998","CENTER_NAME":"EARTH","EPHEMERIS_TYPE":"0","FILE":"3285136","TLE_LINE1":"1 46034U 20055H   22027.71233147  .00001439  00000-0  11552-3 0  9994","PERIOD":"95.593","SITE":"AFETR","ARG_OF_PERICENTER":"69.0961","COUNTRY_CODE":"US","ELEMENT_SET_NO":"999"},{"SEMIMAJOR_AXIS":"6925.354","APOAPSIS":"548.113","OBJECT_NAME":"STARLINK-1558","GP_ID":"194749882","REV_AT_EPOCH":"8199","RCS_SIZE":"LARGE","INCLINATION":"53.0548","BSTAR":"0.00006654700000","MEAN_ELEMENT_THEORY":"SGP4","MEAN_MOTION":"15.06398129","PERIAPSIS":"546.325","MEAN_MOTION_DOT":"0.00000710","RA_OF_ASC_NODE":"29.2177","MEAN_MOTION_DDOT":"0.0000000000000","DECAY_DATE":null,"EPOCH":"2022-01-27T17:16:21.703296","EPHEMERIS_TYPE":"0","FILE":"3285154","PERIOD":"95.592","TLE_LINE1":"1 46035U 20055J   22027.71969564  .00000710  00000-0  66547-4 0  9990","ARG_OF_PERICENTER":"76.9546","COUNTRY_CODE":"US","SITE":"AFETR","ELEMENT_SET_NO":"999","MEAN_ANOMALY":"283.1587","NORAD_CAT_ID":"46035","OBJECT_TYPE":"PAYLOAD","OBJECT_ID":"2020-055J","TIME_SYSTEM":"UTC","REF_FRAME":"TEME","CLASSIFICATION_TYPE":"U","LAUNCH_DATE":"2020-08-07","ECCENTRICITY":"0.00012910","TLE_LINE2":"2 46035  53.0548  29.2177 0001291  76.9546 283.1587 15.06398129 81998","CENTER_NAME":"EARTH"},{"TLE_LINE1":"1 46036U 20055K   22027.70495258  .00000535  00000-0  54832-4 0  9993","PERIOD":"95.592","ARG_OF_PERICENTER":"67.3116","COUNTRY_CODE":"US","SITE":"AFETR","ELEMENT_SET_NO":"999","EPHEMERIS_TYPE":"0","FILE":"3285154","LAUNCH_DATE":"2020-08-07","CLASSIFICATION_TYPE":"U","ECCENTRICITY":"0.00015130","TLE_LINE2":"2 46036  53.0535  29.2802 0001513  67.3116 292.8033 15.06400637 81995","CENTER_NAME":"EARTH","MEAN_ANOMALY":"292.8033","NORAD_CAT_ID":"46036","OBJECT_TYPE":"PAYLOAD","OBJECT_ID":"2020-055K","TIME_SYSTEM":"UTC","REF_FRAME":"TEME","REV_AT_EPOCH":"8199","RCS_SIZE":"LARGE","INCLINATION":"53.0535","BSTAR":"0.00005483200000","SEMIMAJOR_AXIS":"6925.347","OBJECT_NAME":"STARLINK-1560","APOAPSIS":"548.259","GP_ID":"194749393","MEAN_MOTION_DDOT":"0.0000000000000","RA_OF_ASC_NODE":"29.2802","DECAY_DATE":null,"EPOCH":"2022-01-27T16:55:07.902912","MEAN_ELEMENT_THEORY":"SGP4","MEAN_MOTION":"15.06400637","PERIAPSIS":"546.164","MEAN_MOTION_DOT":"0.00000535"},{"OBJECT_NAME":"STARLINK-1565","APOAPSIS":"548.314","SEMIMAJOR_AXIS":"6925.373","GP_ID":"194749404","RCS_SIZE":"LARGE","REV_AT_EPOCH":"8199","INCLINATION":"53.0562","BSTAR":"0.00007074300000","MEAN_ELEMENT_THEORY":"SGP4","PERIAPSIS":"546.161","MEAN_MOTION":"15.06392175","MEAN_MOTION_DOT":"0.00000772","RA_OF_ASC_NODE":"29.3183","MEAN_MOTION_DDOT":"0.0000000000000","DECAY_DATE":null,"EPOCH":"2022-01-27T16:49:49.734912","FILE":"3285137","EPHEMERIS_TYPE":"0","TLE_LINE1":"1 46037U 20055L   22027.70127008  .00000772  00000-0  70743-4 0  9991","PERIOD":"95.593","SITE":"AFETR","ARG_OF_PERICENTER":"76.5000","COUNTRY_CODE":"US","ELEMENT_SET_NO":"999","NORAD_CAT_ID":"46037","MEAN_ANOMALY":"283.6162","OBJECT_TYPE":"PAYLOAD","TIME_SYSTEM":"UTC","OBJECT_ID":"2020-055L","REF_FRAME":"TEME","ECCENTRICITY":"0.00015540","LAUNCH_DATE":"2020-08-07","CLASSIFICATION_TYPE":"U","TLE_LINE2":"2 46037  53.0562  29.3183 0001554  76.5000 283.6162 15.06392175 81996","CENTER_NAME":"EARTH"},{"FILE":"3285141","EPHEMERIS_TYPE":"0","ELEMENT_SET_NO":"999","SITE":"AFETR","ARG_OF_PERICENTER":"84.0223","COUNTRY_CODE":"US","TLE_LINE1":"1 46038U 20055M   22027.71600951  .00000368  00000-0  43594-4 0  9991","PERIOD":"95.592","REF_FRAME":"TEME","TIME_SYSTEM":"UTC","OBJECT_ID":"2020-055M","OBJECT_TYPE":"PAYLOAD","NORAD_CAT_ID":"46038","MEAN_ANOMALY":"276.0934","CENTER_NAME":"EARTH","TLE_LINE2":"2 46038  53.0552  29.2512 0001474  84.0223 276.0934 15.06397054 81997","CLASSIFICATION_TYPE":"U","LAUNCH_DATE":"2020-08-07","ECCENTRICITY":"0.00014740","GP_ID":"194749959","APOAPSIS":"548.243","OBJECT_NAME":"STARLINK-1567","SEMIMAJOR_AXIS":"6925.358","BSTAR":"0.00004359400000","INCLINATION":"53.0552","RCS_SIZE":"LARGE","REV_AT_EPOCH":"8199","MEAN_MOTION_DOT":"0.00000368","PERIAPSIS":"546.202","MEAN_MOTION":"15.06397054","MEAN_ELEMENT_THEORY":"SGP4","EPOCH":"2022-01-27T17:11:03.221664","DECAY_DATE":null,"MEAN_MOTION_DDOT":"0.0000000000000","RA_OF_ASC_NODE":"29.2512"},{"OBJECT_NAME":"STARLINK-1569","APOAPSIS":"548.411","SEMIMAJOR_AXIS":"6925.341","GP_ID":"194740845","RCS_SIZE":"LARGE","REV_AT_EPOCH":"8244","INCLINATION":"53.0546","BSTAR":"0.00048303000000","MEAN_ELEMENT_THEORY":"SGP4","PERIAPSIS":"546.000","MEAN_MOTION":"15.06402612","MEAN_MOTION_DOT":"0.00006921","MEAN_MOTION_DDOT":"0.0000000000000","RA_OF_ASC_NODE":"31.0048","DECAY_DATE":null,"EPOCH":"2022-01-27T07:48:26.867808","FILE":"3284946","EPHEMERIS_TYPE":"0","TLE_LINE1":"1 46039U 20055N   22027.32531097  .00006921  00000-0  48303-3 0  9996","PERIOD":"95.592","SITE":"AFETR","COUNTRY_CODE":"US","ARG_OF_PERICENTER":"74.8729","ELEMENT_SET_NO":"999","NORAD_CAT_ID":"46039","MEAN_ANOMALY":"285.2453","OBJECT_TYPE":"PAYLOAD","TIME_SYSTEM":"UTC","OBJECT_ID":"2020-055N","REF_FRAME":"TEME","LAUNCH_DATE":"2020-08-07","ECCENTRICITY":"0.00017410","CLASSIFICATION_TYPE":"U","TLE_LINE2":"2 46039  53.0546  31.0048 0001741  74.8729 285.2453 15.06402612 82447","CENTER_NAME":"EARTH"},{"FILE":"3285183","EPHEMERIS_TYPE":"0","TLE_LINE1":"1 46040U 20055P   22027.55382868 -.00003441  00000-0 -21212-3 0  9999","PERIOD":"95.591","SITE":"AFETR","ARG_OF_PERICENTER":"65.8674","COUNTRY_CODE":"US","ELEMENT_SET_NO":"999","NORAD_CAT_ID":"46040","MEAN_ANOMALY":"294.2461","OBJECT_TYPE":"PAYLOAD","TIME_SYSTEM":"UTC","OBJECT_ID":"2020-055P","REF_FRAME":"TEME","LAUNCH_DATE":"2020-08-07","CLASSIFICATION_TYPE":"U","ECCENTRICITY":"0.00013900","TLE_LINE2":"2 46040  53.0557  29.9822 0001390  65.8674 294.2461 15.06417553 81972","CENTER_NAME":"EARTH","OBJECT_NAME":"STARLINK-1576","APOAPSIS":"548.122","SEMIMAJOR_AXIS":"6925.295","GP_ID":"194749995","RCS_SIZE":"LARGE","REV_AT_EPOCH":"8197","INCLINATION":"53.0557","BSTAR":"-0.00021212000000","MEAN_ELEMENT_THEORY":"SGP4","PERIAPSIS":"546.197","MEAN_MOTION":"15.06417553","MEAN_MOTION_DOT":"-0.00003441","MEAN_MOTION_DDOT":"0.0000000000000","RA_OF_ASC_NODE":"29.9822","DECAY_DATE":null,"EPOCH":"2022-01-27T13:17:30.797952"},{"SITE":"AFETR","COUNTRY_CODE":"US","ARG_OF_PERICENTER":"54.0695","ELEMENT_SET_NO":"999","PERIOD":"95.592","TLE_LINE1":"1 46041U 20055Q   22027.68926224  .00001033  00000-0  88253-4 0  9996","FILE":"3285137","EPHEMERIS_TYPE":"0","TLE_LINE2":"2 46041  53.0552  29.3745 0001330  54.0695 306.0417 15.06400170 81995","CENTER_NAME":"EARTH","ECCENTRICITY":"0.00013300","LAUNCH_DATE":"2020-08-07","CLASSIFICATION_TYPE":"U","TIME_SYSTEM":"UTC","OBJECT_ID":"2020-055Q","REF_FRAME":"TEME","NORAD_CAT_ID":"46041","MEAN_ANOMALY":"306.0417","OBJECT_TYPE":"PAYLOAD","INCLINATION":"53.0552","BSTAR":"0.00008825300000","RCS_SIZE":"LARGE","REV_AT_EPOCH":"8199","APOAPSIS":"548.134","OBJECT_NAME":"STARLINK-1580","SEMIMAJOR_AXIS":"6925.348","GP_ID":"194749410","EPOCH":"2022-01-27T16:32:32.257536","RA_OF_ASC_NODE":"29.3745","MEAN_MOTION_DDOT":"0.0000000000000","DECAY_DATE":null,"MEAN_MOTION_DOT":"0.00001033","MEAN_ELEMENT_THEORY":"SGP4","PERIAPSIS":"546.292","MEAN_MOTION":"15.06400170"},{"EPHEMERIS_TYPE":"0","FILE":"3285137","ELEMENT_SET_NO":"999","COUNTRY_CODE":"US","ARG_OF_PERICENTER":"66.7871","SITE":"AFETR","TLE_LINE1":"1 46042U 20055R   22027.73813028  .00000849  00000-0  75871-4 0  9996","PERIOD":"95.592","REF_FRAME":"TEME","OBJECT_ID":"2020-055R","TIME_SYSTEM":"UTC","OBJECT_TYPE":"PAYLOAD","MEAN_ANOMALY":"293.3265","NORAD_CAT_ID":"46042","CENTER_NAME":"EARTH","TLE_LINE2":"2 46042  53.0561  29.1526 0001398  66.7871 293.3265 15.06401779 82009","ECCENTRICITY":"0.00013980","LAUNCH_DATE":"2020-08-07","CLASSIFICATION_TYPE":"U","GP_ID":"194749892","SEMIMAJOR_AXIS":"6925.343","OBJECT_NAME":"STARLINK-1581","APOAPSIS":"548.176","BSTAR":"0.00007587100000","INCLINATION":"53.0561","REV_AT_EPOCH":"8200","RCS_SIZE":"LARGE","MEAN_MOTION_DOT":"0.00000849","MEAN_MOTION":"15.06401779","PERIAPSIS":"546.240","MEAN_ELEMENT_THEORY":"SGP4","EPOCH":"2022-01-27T17:42:54.456192","DECAY_DATE":null,"RA_OF_ASC_NODE":"29.1526","MEAN_MOTION_DDOT":"0.0000000000000"}];
